{"type":"FeatureCollection","metadata":{"title":"Cleveland–Akron Opportunity Lab ZCTA subset","sourceDataset":"2020 Census Simplified ZCTA geometry","sourceUrl":"https://raw.githubusercontent.com/aha1994/ZCTA2020/refs/heads/main/2020%20Census%20Simplified/Ohio_ZCTAs_simplified_2020.json","sourceRepository":"aha1994/ZCTA2020","censusVintage":"2020 Census","generatedBy":"scripts/build-zcta-fixture.mjs","coordinatePrecision":5,"featureCount":26},"features":[{"type":"Feature","id":"44022","properties":{"zip":"44022","ZCTA5":"44022","GEOID":"44022"},"geometry":{"type":"Polygon","coordinates":[[[-81.49421,41.4427],[-81.4915,41.44971],[-81.47307,41.44901],[-81.47304,41.44662],[-81.46576,41.44656],[-81.46523,41.44895],[-81.46344,41.44894],[-81.46336,41.4559],[-81.44965,41.45546],[-81.44957,41.4597],[-81.43812,41.4597],[-81.43841,41.50084],[-81.43375,41.50081],[-81.43378,41.49897],[-81.43474,41.49824],[-81.41852,41.49847],[-81.41574,41.49729],[-81.41183,41.49779],[-81.40938,41.49696],[-81.40833,41.49942],[-81.40377,41.49851],[-81.40423,41.50085],[-81.37789,41.50041],[-81.37885,41.49901],[-81.3817,41.4977],[-81.3809,41.49692],[-81.3809,41.49501],[-81.38247,41.49244],[-81.3826,41.47858],[-81.37764,41.47851],[-81.3778,41.47736],[-81.37704,41.47734],[-81.38145,41.47185],[-81.38094,41.47077],[-81.38213,41.4704],[-81.37982,41.47015],[-81.37987,41.46755],[-81.3913,41.46075],[-81.39133,41.45926],[-81.37905,41.45817],[-81.37266,41.45825],[-81.36848,41.45944],[-81.3669,41.45517],[-81.36386,41.45756],[-81.35982,41.45676],[-81.35412,41.45965],[-81.35383,41.46045],[-81.35263,41.46005],[-81.34963,41.45675],[-81.34983,41.45335],[-81.34811,41.45223],[-81.33871,41.45229],[-81.33825,41.44096],[-81.33568,41.44098],[-81.3358,41.43865],[-81.29782,41.43967],[-81.29773,41.42509],[-81.35826,41.42453],[-81.36052,41.4212],[-81.36185,41.42176],[-81.36168,41.42447],[-81.38717,41.42427],[-81.38635,41.42309],[-81.38772,41.42263],[-81.38781,41.42156],[-81.39178,41.42155],[-81.39191,41.39126],[-81.39379,41.39239],[-81.3937,41.39377],[-81.39639,41.39482],[-81.39674,41.39718],[-81.40004,41.39883],[-81.40229,41.40196],[-81.42542,41.40212],[-81.42481,41.4033],[-81.42339,41.40368],[-81.42492,41.40522],[-81.42911,41.40524],[-81.42834,41.42475],[-81.4887,41.42427],[-81.4884,41.44272],[-81.49421,41.4427]]]}},{"type":"Feature","id":"44060","properties":{"zip":"44060","ZCTA5":"44060","GEOID":"44060"},"geometry":{"type":"Polygon","coordinates":[[[-81.39095,41.64885],[-81.38863,41.70726],[-81.36781,41.71931],[-81.36105,41.72209],[-81.35293,41.72782],[-81.34544,41.72967],[-81.33855,41.73415],[-81.33227,41.73655],[-81.32735,41.74013],[-81.30346,41.74945],[-81.29083,41.75745],[-81.29313,41.68384],[-81.29082,41.68381],[-81.28842,41.68241],[-81.28826,41.68115],[-81.28626,41.68115],[-81.2852,41.68376],[-81.27766,41.68386],[-81.27808,41.68276],[-81.28337,41.68144],[-81.28378,41.68007],[-81.2824,41.67628],[-81.27591,41.67639],[-81.27567,41.6754],[-81.2746,41.67534],[-81.27452,41.67025],[-81.27708,41.67021],[-81.27814,41.6691],[-81.27766,41.66641],[-81.27483,41.66671],[-81.27473,41.66837],[-81.27452,41.66682],[-81.26742,41.66929],[-81.26926,41.66705],[-81.26851,41.66669],[-81.2702,41.66328],[-81.27252,41.66057],[-81.27201,41.65989],[-81.27443,41.65915],[-81.27496,41.65747],[-81.27496,41.6559],[-81.26893,41.65565],[-81.26854,41.65396],[-81.27665,41.65351],[-81.27676,41.65298],[-81.27508,41.65286],[-81.2752,41.6471],[-81.28332,41.64688],[-81.28552,41.64534],[-81.28536,41.64255],[-81.27684,41.64251],[-81.2742,41.64343],[-81.27438,41.64404],[-81.27219,41.64406],[-81.27327,41.64097],[-81.26236,41.64107],[-81.26204,41.62933],[-81.26747,41.62787],[-81.27363,41.62101],[-81.27507,41.62244],[-81.27687,41.62058],[-81.27936,41.62159],[-81.27985,41.61854],[-81.28278,41.61716],[-81.28466,41.61464],[-81.29051,41.61542],[-81.30868,41.61545],[-81.30913,41.61989],[-81.32097,41.62049],[-81.3226,41.61826],[-81.32454,41.61858],[-81.32495,41.62817],[-81.34655,41.62818],[-81.34903,41.62975],[-81.34953,41.63289],[-81.35447,41.63223],[-81.35948,41.63044],[-81.35981,41.63213],[-81.35652,41.63387],[-81.35626,41.63728],[-81.35393,41.64042],[-81.3711,41.64021],[-81.37487,41.64134],[-81.38094,41.64153],[-81.38062,41.65096],[-81.38876,41.64684],[-81.38895,41.64971],[-81.39095,41.64885]]]}},{"type":"Feature","id":"44070","properties":{"zip":"44070","ZCTA5":"44070","GEOID":"44070"},"geometry":{"type":"Polygon","coordinates":[[[-81.97046,41.38805],[-81.97026,41.41105],[-81.95996,41.41105],[-81.9596,41.41404],[-81.94624,41.41398],[-81.94577,41.41855],[-81.94267,41.41864],[-81.94278,41.42679],[-81.93913,41.42652],[-81.93549,41.42968],[-81.93292,41.4292],[-81.93261,41.43376],[-81.90318,41.43347],[-81.90291,41.44085],[-81.89338,41.44073],[-81.89306,41.44797],[-81.87467,41.44811],[-81.87528,41.41415],[-81.87913,41.41186],[-81.88143,41.40778],[-81.88327,41.40727],[-81.88346,41.40565],[-81.88106,41.40455],[-81.90027,41.40495],[-81.90144,41.40438],[-81.90165,41.39932],[-81.90775,41.39937],[-81.90715,41.39324],[-81.91139,41.39318],[-81.91117,41.39929],[-81.93018,41.39972],[-81.93084,41.39204],[-81.94413,41.39207],[-81.94411,41.38946],[-81.9464,41.38915],[-81.94656,41.38654],[-81.96266,41.38663],[-81.96269,41.38564],[-81.96395,41.38564],[-81.96336,41.37903],[-81.96128,41.37903],[-81.96131,41.37828],[-81.96491,41.37829],[-81.96479,41.38447],[-81.96701,41.38459],[-81.96698,41.3867],[-81.97046,41.38675],[-81.97046,41.38805]]]}},{"type":"Feature","id":"44102","properties":{"zip":"44102","ZCTA5":"44102","GEOID":"44102"},"geometry":{"type":"Polygon","coordinates":[[[-81.76903,41.49733],[-81.75049,41.49387],[-81.73022,41.49936],[-81.71481,41.5073],[-81.70807,41.49908],[-81.70913,41.4978],[-81.71191,41.49731],[-81.71329,41.49451],[-81.71376,41.49337],[-81.71164,41.49059],[-81.71771,41.48789],[-81.7177,41.48481],[-81.71709,41.48481],[-81.71773,41.47831],[-81.71709,41.47854],[-81.71734,41.4769],[-81.7165,41.4769],[-81.71646,41.47461],[-81.71719,41.47362],[-81.71646,41.47362],[-81.71706,41.4703],[-81.71649,41.46966],[-81.71712,41.46966],[-81.71706,41.46619],[-81.71779,41.46619],[-81.71779,41.46551],[-81.71705,41.46551],[-81.71777,41.46428],[-81.71704,41.46413],[-81.71792,41.46364],[-81.71695,41.46212],[-81.7169,41.45613],[-81.71584,41.45592],[-81.71735,41.45497],[-81.71674,41.45399],[-81.71776,41.45345],[-81.71608,41.4529],[-81.71697,41.44997],[-81.72926,41.45052],[-81.7349,41.44758],[-81.73627,41.44889],[-81.73123,41.45181],[-81.73371,41.45408],[-81.73209,41.45515],[-81.73139,41.45679],[-81.73975,41.45946],[-81.74041,41.46032],[-81.74002,41.46155],[-81.7535,41.4521],[-81.75487,41.45291],[-81.75489,41.45565],[-81.75281,41.45581],[-81.7533,41.46672],[-81.75278,41.46905],[-81.75226,41.46734],[-81.75104,41.46773],[-81.75104,41.46943],[-81.75315,41.47046],[-81.76574,41.47039],[-81.76577,41.47534],[-81.7688,41.474],[-81.76807,41.48344],[-81.76875,41.48362],[-81.76903,41.49733]]]}},{"type":"Feature","id":"44106","properties":{"zip":"44106","ZCTA5":"44106","GEOID":"44106"},"geometry":{"type":"Polygon","coordinates":[[[-81.63072,41.5086],[-81.62776,41.50867],[-81.62708,41.50938],[-81.62839,41.50936],[-81.62871,41.51011],[-81.62904,41.52034],[-81.62472,41.52081],[-81.62442,41.52201],[-81.62269,41.52101],[-81.61665,41.52159],[-81.61666,41.52232],[-81.59812,41.52364],[-81.59854,41.52015],[-81.60097,41.51994],[-81.60094,41.51911],[-81.60026,41.51767],[-81.59869,41.51794],[-81.59538,41.51598],[-81.5967,41.51613],[-81.5989,41.514],[-81.59833,41.51307],[-81.59123,41.5135],[-81.59127,41.50871],[-81.5879,41.50872],[-81.57998,41.51172],[-81.57996,41.50093],[-81.5805,41.50099],[-81.58125,41.49594],[-81.58048,41.4956],[-81.58259,41.49113],[-81.58237,41.49003],[-81.60349,41.49495],[-81.60498,41.49771],[-81.60575,41.49785],[-81.60974,41.49292],[-81.61136,41.49368],[-81.61625,41.49346],[-81.62161,41.49056],[-81.62163,41.49343],[-81.62449,41.49343],[-81.62449,41.49245],[-81.62733,41.49245],[-81.62735,41.49342],[-81.62817,41.49341],[-81.62779,41.49988],[-81.62962,41.49995],[-81.62983,41.50355],[-81.62883,41.50384],[-81.62883,41.50729],[-81.62961,41.50581],[-81.63071,41.50591],[-81.63072,41.5086]]]}},{"type":"Feature","id":"44109","properties":{"zip":"44109","ZCTA5":"44109","GEOID":"44109"},"geometry":{"type":"Polygon","coordinates":[[[-81.72342,41.42275],[-81.7232,41.42435],[-81.72098,41.42486],[-81.71732,41.42801],[-81.71772,41.42871],[-81.71506,41.42992],[-81.71624,41.43021],[-81.7163,41.43474],[-81.71791,41.43475],[-81.71794,41.4394],[-81.71643,41.43906],[-81.71582,41.43987],[-81.71657,41.44292],[-81.71788,41.44331],[-81.71788,41.44704],[-81.71608,41.4529],[-81.71776,41.45345],[-81.71674,41.45399],[-81.71735,41.45497],[-81.71584,41.45592],[-81.7169,41.45613],[-81.71695,41.46212],[-81.71792,41.46364],[-81.71704,41.46413],[-81.71777,41.46428],[-81.71705,41.46551],[-81.71779,41.46551],[-81.71706,41.46619],[-81.71712,41.46966],[-81.7151,41.47049],[-81.71333,41.4697],[-81.70389,41.46986],[-81.70391,41.4706],[-81.70197,41.47109],[-81.70149,41.4699],[-81.66924,41.47042],[-81.67068,41.46765],[-81.67304,41.46546],[-81.67935,41.46412],[-81.68265,41.46094],[-81.68412,41.45516],[-81.68116,41.4493],[-81.68328,41.44891],[-81.68465,41.44752],[-81.68402,41.44523],[-81.68186,41.44373],[-81.67961,41.44453],[-81.6774,41.44407],[-81.67776,41.44141],[-81.67411,41.43901],[-81.67189,41.43829],[-81.67057,41.43989],[-81.66922,41.44019],[-81.66823,41.43828],[-81.6636,41.43699],[-81.66346,41.4346],[-81.66612,41.43285],[-81.6778,41.4327],[-81.67736,41.42271],[-81.67626,41.42306],[-81.6762,41.42056],[-81.67823,41.42121],[-81.67985,41.41895],[-81.68079,41.41968],[-81.69512,41.41918],[-81.69566,41.42091],[-81.72444,41.42184],[-81.72342,41.42275]]]}},{"type":"Feature","id":"44111","properties":{"zip":"44111","ZCTA5":"44111","GEOID":"44111"},"geometry":{"type":"Polygon","coordinates":[[[-81.83553,41.46962],[-81.83009,41.4681],[-81.81806,41.46814],[-81.81387,41.46739],[-81.8104,41.468],[-81.81036,41.46994],[-81.78974,41.46927],[-81.78972,41.47032],[-81.78903,41.47045],[-81.78306,41.47049],[-81.78141,41.46968],[-81.7774,41.47228],[-81.76881,41.47555],[-81.7688,41.474],[-81.76577,41.47534],[-81.76574,41.47039],[-81.75315,41.47046],[-81.75104,41.46943],[-81.75104,41.46773],[-81.75226,41.46734],[-81.75278,41.46905],[-81.7533,41.46672],[-81.75281,41.45581],[-81.75489,41.45565],[-81.75487,41.45291],[-81.7535,41.4521],[-81.76438,41.44462],[-81.7668,41.44659],[-81.76888,41.44528],[-81.77977,41.44515],[-81.79059,41.439],[-81.78561,41.44311],[-81.78692,41.44329],[-81.78691,41.4441],[-81.78482,41.44407],[-81.78469,41.44539],[-81.7962,41.44565],[-81.79678,41.44427],[-81.80138,41.44416],[-81.80141,41.4462],[-81.80559,41.44117],[-81.80638,41.44113],[-81.80699,41.44598],[-81.81368,41.44565],[-81.8137,41.4448],[-81.8165,41.44486],[-81.81694,41.44599],[-81.81863,41.44616],[-81.81924,41.44491],[-81.82297,41.44487],[-81.82451,41.44304],[-81.82966,41.44313],[-81.83126,41.4452],[-81.83208,41.45205],[-81.83013,41.45226],[-81.82726,41.45027],[-81.8248,41.45155],[-81.82228,41.45503],[-81.81915,41.45693],[-81.82359,41.46218],[-81.82373,41.46354],[-81.81727,41.4647],[-81.8158,41.46598],[-81.81857,41.46704],[-81.82344,41.46513],[-81.83287,41.46475],[-81.83612,41.46739],[-81.83553,41.46962]]]}},{"type":"Feature","id":"44113","properties":{"zip":"44113","ZCTA5":"44113","GEOID":"44113"},"geometry":{"type":"Polygon","coordinates":[[[-81.71771,41.47882],[-81.71713,41.47956],[-81.71772,41.48097],[-81.71711,41.48095],[-81.71712,41.48253],[-81.71772,41.48277],[-81.71712,41.48277],[-81.71709,41.48481],[-81.7177,41.48481],[-81.71769,41.488],[-81.71164,41.49059],[-81.71376,41.49337],[-81.71191,41.49731],[-81.70848,41.49828],[-81.70807,41.49908],[-81.70904,41.50005],[-81.69974,41.50367],[-81.69837,41.50207],[-81.69532,41.50361],[-81.6939,41.502],[-81.69516,41.50133],[-81.69216,41.4979],[-81.69313,41.49763],[-81.6933,41.49672],[-81.69025,41.49654],[-81.68561,41.49343],[-81.68457,41.49394],[-81.67799,41.49228],[-81.67779,41.49093],[-81.67448,41.48935],[-81.67454,41.48815],[-81.68148,41.49058],[-81.68552,41.48966],[-81.68626,41.48873],[-81.6856,41.48808],[-81.68174,41.48957],[-81.68079,41.48919],[-81.67985,41.48696],[-81.67741,41.48497],[-81.67565,41.4803],[-81.67153,41.47683],[-81.67002,41.47442],[-81.66896,41.47196],[-81.66902,41.46988],[-81.66924,41.47042],[-81.67843,41.47066],[-81.70149,41.4699],[-81.70197,41.47109],[-81.70391,41.4706],[-81.70389,41.46986],[-81.7165,41.47011],[-81.71706,41.4703],[-81.71646,41.47362],[-81.71719,41.47362],[-81.71646,41.47461],[-81.7165,41.4769],[-81.71734,41.4769],[-81.71709,41.47854],[-81.71771,41.47882]]]}},{"type":"Feature","id":"44114","properties":{"zip":"44114","ZCTA5":"44114","GEOID":"44114"},"geometry":{"type":"Polygon","coordinates":[[[-81.71493,41.50745],[-81.71056,41.50968],[-81.68579,41.52681],[-81.67115,41.53419],[-81.65234,41.54159],[-81.65193,41.52708],[-81.6542,41.52601],[-81.65196,41.526],[-81.65194,41.52296],[-81.66467,41.51688],[-81.66399,41.51607],[-81.66454,41.51561],[-81.66216,41.51385],[-81.66395,41.51315],[-81.65989,41.51039],[-81.66055,41.5102],[-81.65972,41.50886],[-81.66141,41.50824],[-81.66102,41.50629],[-81.65854,41.50655],[-81.65833,41.50535],[-81.66778,41.5045],[-81.66755,41.50329],[-81.66854,41.50319],[-81.66838,41.50446],[-81.67025,41.50422],[-81.66989,41.50227],[-81.6746,41.50174],[-81.67498,41.50378],[-81.68153,41.50316],[-81.68139,41.50238],[-81.68333,41.50218],[-81.68298,41.50078],[-81.68454,41.50058],[-81.6848,41.50172],[-81.68608,41.50169],[-81.68745,41.50105],[-81.68632,41.49975],[-81.69119,41.49958],[-81.69064,41.49818],[-81.69216,41.4979],[-81.69516,41.50133],[-81.6939,41.502],[-81.69532,41.50361],[-81.69837,41.50207],[-81.69974,41.50367],[-81.70904,41.50005],[-81.71493,41.50745]]]}},{"type":"Feature","id":"44115","properties":{"zip":"44115","ZCTA5":"44115","GEOID":"44115"},"geometry":{"type":"Polygon","coordinates":[[[-81.69313,41.49763],[-81.69064,41.49818],[-81.69119,41.49958],[-81.68632,41.49975],[-81.68745,41.50105],[-81.68608,41.50169],[-81.6848,41.50172],[-81.68454,41.50058],[-81.68298,41.50078],[-81.68333,41.50218],[-81.68139,41.50238],[-81.68153,41.50316],[-81.67498,41.50378],[-81.6746,41.50174],[-81.66989,41.50227],[-81.67025,41.50422],[-81.66838,41.50446],[-81.66854,41.50319],[-81.66755,41.50329],[-81.66778,41.5045],[-81.65833,41.50535],[-81.65714,41.49987],[-81.65805,41.49975],[-81.65739,41.49649],[-81.65635,41.49645],[-81.65671,41.49547],[-81.65742,41.49563],[-81.65842,41.49289],[-81.65771,41.49278],[-81.66043,41.4844],[-81.6553,41.482],[-81.65151,41.48187],[-81.65147,41.47977],[-81.66163,41.47991],[-81.66054,41.476],[-81.66146,41.47696],[-81.66723,41.47601],[-81.66762,41.47717],[-81.67057,41.47852],[-81.67323,41.47819],[-81.67565,41.4803],[-81.67741,41.48497],[-81.67985,41.48696],[-81.68079,41.48919],[-81.68174,41.48957],[-81.6856,41.48808],[-81.68626,41.48873],[-81.68552,41.48966],[-81.68103,41.4906],[-81.67454,41.48815],[-81.67448,41.48935],[-81.66672,41.48713],[-81.66598,41.48933],[-81.68457,41.49394],[-81.68561,41.49343],[-81.69025,41.49654],[-81.6933,41.49672],[-81.69313,41.49763]]]}},{"type":"Feature","id":"44118","properties":{"zip":"44118","ZCTA5":"44118","GEOID":"44118"},"geometry":{"type":"Polygon","coordinates":[[[-81.59126,41.51062],[-81.59122,41.51613],[-81.58559,41.51615],[-81.58401,41.51996],[-81.58624,41.52177],[-81.58473,41.52324],[-81.57932,41.52268],[-81.57546,41.52349],[-81.56479,41.52342],[-81.55786,41.52603],[-81.55676,41.52452],[-81.55462,41.52451],[-81.55438,41.5232],[-81.55285,41.52302],[-81.55282,41.52043],[-81.54643,41.52064],[-81.54625,41.51312],[-81.54147,41.51243],[-81.54152,41.50843],[-81.54611,41.50838],[-81.54612,41.50601],[-81.53635,41.50601],[-81.53631,41.5024],[-81.53134,41.5024],[-81.53135,41.4991],[-81.5272,41.4991],[-81.5246,41.50137],[-81.5233,41.50136],[-81.52306,41.49983],[-81.52149,41.49974],[-81.52149,41.50136],[-81.51945,41.50136],[-81.51702,41.49801],[-81.51705,41.49226],[-81.51773,41.49226],[-81.51779,41.48914],[-81.51962,41.48914],[-81.51813,41.48851],[-81.51814,41.48698],[-81.51704,41.48698],[-81.51705,41.48635],[-81.52391,41.4858],[-81.5244,41.4864],[-81.52742,41.48644],[-81.52835,41.48573],[-81.53381,41.48582],[-81.53465,41.48518],[-81.53568,41.48605],[-81.53626,41.4859],[-81.53623,41.48383],[-81.5386,41.48471],[-81.54084,41.48345],[-81.55019,41.48316],[-81.55165,41.4818],[-81.55036,41.48014],[-81.55885,41.48107],[-81.56184,41.48264],[-81.56508,41.48305],[-81.56508,41.4842],[-81.57328,41.48492],[-81.58237,41.49003],[-81.58259,41.49113],[-81.58048,41.4956],[-81.58125,41.49594],[-81.5805,41.50099],[-81.57996,41.50093],[-81.57998,41.51172],[-81.5879,41.50872],[-81.59127,41.50871],[-81.59126,41.51062]]]}},{"type":"Feature","id":"44122","properties":{"zip":"44122","ZCTA5":"44122","GEOID":"44122"},"geometry":{"type":"Polygon","coordinates":[[[-81.55627,41.46873],[-81.55595,41.47251],[-81.55317,41.47258],[-81.55003,41.47449],[-81.55047,41.47772],[-81.54984,41.47836],[-81.55164,41.48166],[-81.5507,41.48294],[-81.54084,41.48345],[-81.5386,41.48471],[-81.53623,41.48383],[-81.53626,41.4859],[-81.53568,41.48605],[-81.53465,41.48518],[-81.53381,41.48582],[-81.52835,41.48573],[-81.52742,41.48644],[-81.5244,41.4864],[-81.52391,41.4858],[-81.51705,41.48635],[-81.51704,41.48698],[-81.51814,41.48698],[-81.51813,41.48851],[-81.51962,41.48914],[-81.51779,41.48914],[-81.51773,41.49226],[-81.51705,41.49226],[-81.51654,41.49849],[-81.51769,41.50041],[-81.51684,41.50041],[-81.51684,41.50136],[-81.51802,41.50136],[-81.51804,41.50196],[-81.51274,41.50193],[-81.51269,41.51072],[-81.51153,41.51073],[-81.51136,41.51948],[-81.51001,41.51946],[-81.50826,41.51817],[-81.50935,41.51703],[-81.50896,41.51571],[-81.50603,41.51481],[-81.50531,41.51215],[-81.50311,41.51044],[-81.50437,41.50895],[-81.50433,41.50658],[-81.50717,41.5069],[-81.50722,41.50134],[-81.48054,41.50121],[-81.48409,41.49744],[-81.48599,41.49342],[-81.48682,41.48184],[-81.49036,41.46393],[-81.48406,41.4637],[-81.48196,41.46493],[-81.47861,41.46445],[-81.47838,41.46641],[-81.47746,41.46641],[-81.47745,41.4637],[-81.469,41.46341],[-81.46898,41.46235],[-81.46646,41.46235],[-81.46634,41.4595],[-81.46332,41.4595],[-81.46344,41.44894],[-81.46523,41.44895],[-81.46576,41.44656],[-81.47304,41.44662],[-81.47307,41.44901],[-81.4915,41.44971],[-81.49375,41.44357],[-81.49784,41.43741],[-81.4979,41.44333],[-81.50187,41.44197],[-81.50397,41.44477],[-81.50366,41.44977],[-81.50495,41.4499],[-81.51699,41.45092],[-81.51701,41.44868],[-81.52746,41.44882],[-81.52825,41.44704],[-81.53156,41.44577],[-81.53212,41.44671],[-81.53171,41.44575],[-81.53545,41.44601],[-81.53609,41.44715],[-81.53609,41.44472],[-81.53848,41.44437],[-81.5389,41.44324],[-81.5392,41.44441],[-81.53855,41.44511],[-81.53992,41.44514],[-81.54034,41.44586],[-81.54566,41.44586],[-81.54567,41.44241],[-81.55182,41.4429],[-81.55064,41.44584],[-81.55064,41.44984],[-81.55252,41.45078],[-81.55252,41.45634],[-81.55097,41.45637],[-81.5509,41.4572],[-81.5555,41.45721],[-81.5561,41.45814],[-81.55552,41.45994],[-81.55605,41.46406],[-81.5549,41.46545],[-81.55583,41.46643],[-81.55337,41.46675],[-81.55578,41.46675],[-81.55486,41.46771],[-81.55581,41.46771],[-81.55627,41.46873]]]}},{"type":"Feature","id":"44124","properties":{"zip":"44124","ZCTA5":"44124","GEOID":"44124"},"geometry":{"type":"Polygon","coordinates":[[[-81.51136,41.51974],[-81.50906,41.51977],[-81.50904,41.52323],[-81.50721,41.52322],[-81.50786,41.53419],[-81.51046,41.53374],[-81.51047,41.53455],[-81.50912,41.53533],[-81.50917,41.5371],[-81.50717,41.53712],[-81.50715,41.53796],[-81.48798,41.53779],[-81.48785,41.53061],[-81.46075,41.53071],[-81.46077,41.53159],[-81.45291,41.53138],[-81.45287,41.53071],[-81.43878,41.5304],[-81.43878,41.52923],[-81.43226,41.52912],[-81.43228,41.51465],[-81.43861,41.51476],[-81.43812,41.4597],[-81.44957,41.4597],[-81.44965,41.45546],[-81.46336,41.4559],[-81.46332,41.4595],[-81.46634,41.4595],[-81.46646,41.46235],[-81.46898,41.46235],[-81.469,41.46341],[-81.47745,41.4637],[-81.47746,41.46641],[-81.47838,41.46641],[-81.47861,41.46445],[-81.48196,41.46493],[-81.48406,41.4637],[-81.49036,41.46393],[-81.48682,41.48184],[-81.48599,41.49342],[-81.48409,41.49744],[-81.48054,41.50121],[-81.50722,41.50134],[-81.50717,41.5069],[-81.50433,41.50658],[-81.50437,41.50895],[-81.50311,41.51044],[-81.50531,41.51215],[-81.50603,41.51481],[-81.50896,41.51571],[-81.50935,41.51703],[-81.50839,41.51774],[-81.50849,41.51867],[-81.51136,41.51974]]]}},{"type":"Feature","id":"44128","properties":{"zip":"44128","ZCTA5":"44128","GEOID":"44128"},"geometry":{"type":"Polygon","coordinates":[[[-81.58527,41.45749],[-81.5509,41.4572],[-81.55097,41.45637],[-81.55252,41.45634],[-81.55252,41.45078],[-81.55064,41.44984],[-81.55064,41.44584],[-81.55182,41.4429],[-81.55044,41.44269],[-81.54567,41.44241],[-81.54566,41.44586],[-81.54034,41.44586],[-81.53992,41.44514],[-81.53855,41.44511],[-81.5392,41.44441],[-81.5389,41.44324],[-81.53848,41.44437],[-81.53609,41.44472],[-81.53609,41.44715],[-81.53545,41.44601],[-81.53171,41.44575],[-81.53212,41.44671],[-81.53156,41.44577],[-81.52825,41.44704],[-81.52746,41.44882],[-81.51701,41.44868],[-81.51699,41.45092],[-81.50366,41.44977],[-81.50397,41.44477],[-81.50187,41.44197],[-81.4979,41.44333],[-81.49784,41.43741],[-81.49421,41.4427],[-81.4884,41.44272],[-81.4887,41.42427],[-81.50886,41.42423],[-81.50879,41.4182],[-81.52433,41.42407],[-81.52322,41.42422],[-81.5271,41.4242],[-81.52682,41.42498],[-81.53632,41.42857],[-81.53732,41.42429],[-81.56488,41.42431],[-81.56498,41.42358],[-81.56732,41.42259],[-81.57126,41.42426],[-81.58238,41.42423],[-81.57965,41.42541],[-81.58153,41.42783],[-81.58449,41.42852],[-81.58447,41.43015],[-81.58298,41.43043],[-81.58265,41.43288],[-81.58175,41.43288],[-81.58177,41.43821],[-81.58451,41.43811],[-81.58502,41.4423],[-81.584,41.44233],[-81.58422,41.44394],[-81.57977,41.443],[-81.57977,41.4442],[-81.5845,41.44545],[-81.58403,41.45071],[-81.58456,41.45072],[-81.58527,41.45749]]]}},{"type":"Feature","id":"44129","properties":{"zip":"44129","ZCTA5":"44129","GEOID":"44129"},"geometry":{"type":"Polygon","coordinates":[[[-81.757,41.42154],[-81.73435,41.42118],[-81.73435,41.42204],[-81.72444,41.42184],[-81.7253,41.42108],[-81.72195,41.42102],[-81.72387,41.41872],[-81.72219,41.41873],[-81.72276,41.40324],[-81.7187,41.40325],[-81.7187,41.40216],[-81.72276,41.40214],[-81.72348,41.38102],[-81.72277,41.38103],[-81.7226,41.37092],[-81.71873,41.37089],[-81.71873,41.36987],[-81.72264,41.36984],[-81.72264,41.36758],[-81.71636,41.36699],[-81.71846,41.35976],[-81.72005,41.36005],[-81.71954,41.36271],[-81.72016,41.36281],[-81.72204,41.36258],[-81.72419,41.3607],[-81.73182,41.35982],[-81.73423,41.3528],[-81.73525,41.35279],[-81.73587,41.35084],[-81.75396,41.35073],[-81.74722,41.35276],[-81.7472,41.35493],[-81.74059,41.35503],[-81.74068,41.35797],[-81.73918,41.35797],[-81.73924,41.3595],[-81.74065,41.36075],[-81.74007,41.36132],[-81.74054,41.36218],[-81.73949,41.36263],[-81.74047,41.36324],[-81.74035,41.36499],[-81.74313,41.36492],[-81.74313,41.36605],[-81.74513,41.36604],[-81.74513,41.36482],[-81.74573,41.36483],[-81.74632,41.37003],[-81.74928,41.37091],[-81.74721,41.37112],[-81.74694,41.38454],[-81.74444,41.38454],[-81.74531,41.40402],[-81.7442,41.40488],[-81.74573,41.40488],[-81.74414,41.40593],[-81.74661,41.40739],[-81.74985,41.40681],[-81.75142,41.40895],[-81.75295,41.40832],[-81.75499,41.40889],[-81.75353,41.41143],[-81.75467,41.41406],[-81.75426,41.41728],[-81.757,41.42154]]]}},{"type":"Feature","id":"44130","properties":{"zip":"44130","ZCTA5":"44130","GEOID":"44130"},"geometry":{"type":"Polygon","coordinates":[[[-81.84906,41.38495],[-81.84273,41.38943],[-81.80484,41.38843],[-81.80488,41.3864],[-81.80282,41.3866],[-81.80222,41.38787],[-81.80109,41.38752],[-81.80041,41.38827],[-81.78456,41.38755],[-81.78389,41.41505],[-81.78094,41.41845],[-81.78029,41.42057],[-81.77602,41.42184],[-81.757,41.42154],[-81.75426,41.41728],[-81.75467,41.41406],[-81.75353,41.41143],[-81.75499,41.40889],[-81.75295,41.40832],[-81.75142,41.40895],[-81.74985,41.40681],[-81.74661,41.40739],[-81.74414,41.40593],[-81.74573,41.40488],[-81.7442,41.40488],[-81.74531,41.40402],[-81.74444,41.38454],[-81.74694,41.38454],[-81.74721,41.37112],[-81.74928,41.37091],[-81.74632,41.37003],[-81.74573,41.36483],[-81.74513,41.36482],[-81.74513,41.36604],[-81.74313,41.36605],[-81.74313,41.36492],[-81.74035,41.36499],[-81.74047,41.36324],[-81.73949,41.36263],[-81.74054,41.36218],[-81.74007,41.36132],[-81.74065,41.36075],[-81.73924,41.3595],[-81.73918,41.35797],[-81.74068,41.35797],[-81.74059,41.35503],[-81.7472,41.35493],[-81.74722,41.35276],[-81.75396,41.35073],[-81.83891,41.35062],[-81.8326,41.3557],[-81.83965,41.35776],[-81.84398,41.35749],[-81.84168,41.35958],[-81.84164,41.3609],[-81.83869,41.36098],[-81.83866,41.36415],[-81.83785,41.3641],[-81.83849,41.36476],[-81.83835,41.36737],[-81.83766,41.36768],[-81.83901,41.36771],[-81.83896,41.3691],[-81.84046,41.36921],[-81.84071,41.37525],[-81.84003,41.37525],[-81.83997,41.37785],[-81.84344,41.37801],[-81.84337,41.37936],[-81.84904,41.37952],[-81.84906,41.38495]]]}},{"type":"Feature","id":"44140","properties":{"zip":"44140","ZCTA5":"44140","GEOID":"44140"},"geometry":{"type":"Polygon","coordinates":[[[-81.96946,41.47814],[-81.96916,41.49334],[-81.9677,41.51079],[-81.93831,41.49989],[-81.8738,41.48947],[-81.87365,41.47687],[-81.96946,41.47814]]]}},{"type":"Feature","id":"44145","properties":{"zip":"44145","ZCTA5":"44145","GEOID":"44145"},"geometry":{"type":"Polygon","coordinates":[[[-81.96998,41.41638],[-81.96946,41.47802],[-81.87365,41.47687],[-81.87467,41.44811],[-81.89306,41.44797],[-81.89338,41.44073],[-81.90291,41.44085],[-81.90318,41.43347],[-81.93261,41.43376],[-81.93292,41.4292],[-81.93549,41.42968],[-81.93913,41.42652],[-81.94278,41.42679],[-81.94267,41.41864],[-81.94577,41.41855],[-81.94624,41.41398],[-81.9596,41.41404],[-81.95996,41.41105],[-81.97026,41.41105],[-81.96998,41.41638]]]}},{"type":"Feature","id":"44202","properties":{"zip":"44202","ZCTA5":"44202","GEOID":"44202"},"geometry":{"type":"Polygon","coordinates":[[[-81.41901,41.34875],[-81.39169,41.34827],[-81.39176,41.36196],[-81.38892,41.36197],[-81.3734,41.35464],[-81.37408,41.35885],[-81.37344,41.36198],[-81.36794,41.36198],[-81.36744,41.35993],[-81.35893,41.35647],[-81.3574,41.35215],[-81.35483,41.35098],[-81.35294,41.34866],[-81.35414,41.34781],[-81.3091,41.34739],[-81.30905,41.35241],[-81.3039,41.35319],[-81.30423,41.35388],[-81.30063,41.35467],[-81.2996,41.35616],[-81.29851,41.35594],[-81.29857,41.34732],[-81.28074,41.34743],[-81.28081,41.33722],[-81.27766,41.33719],[-81.27849,41.33212],[-81.26875,41.3321],[-81.26883,41.32666],[-81.27247,41.32669],[-81.27253,41.32149],[-81.27541,41.32088],[-81.28104,41.32129],[-81.28125,41.30632],[-81.28755,41.29738],[-81.27011,41.293],[-81.2701,41.28754],[-81.27548,41.2875],[-81.27547,41.28941],[-81.27853,41.2894],[-81.2785,41.29318],[-81.28125,41.29322],[-81.28127,41.29463],[-81.28268,41.29464],[-81.28262,41.29352],[-81.29295,41.29358],[-81.29301,41.29059],[-81.29847,41.29067],[-81.29852,41.27529],[-81.39183,41.27665],[-81.39174,41.31174],[-81.40044,41.31172],[-81.40037,41.31686],[-81.40211,41.31685],[-81.40208,41.32005],[-81.40772,41.32001],[-81.40754,41.3269],[-81.40014,41.3267],[-81.3998,41.33274],[-81.40699,41.33266],[-81.40713,41.33865],[-81.40659,41.33793],[-81.40626,41.33786],[-81.40637,41.33903],[-81.40494,41.33984],[-81.40687,41.33984],[-81.40686,41.34162],[-81.41894,41.34164],[-81.41901,41.34875]]]}},{"type":"Feature","id":"44212","properties":{"zip":"44212","ZCTA5":"44212","GEOID":"44212"},"geometry":{"type":"Polygon","coordinates":[[[-81.88607,41.2714],[-81.88352,41.27501],[-81.85675,41.27534],[-81.85679,41.27293],[-81.85034,41.27278],[-81.85026,41.27542],[-81.84832,41.27545],[-81.84846,41.27134],[-81.83867,41.27105],[-81.83691,41.27396],[-81.83901,41.27429],[-81.83911,41.27556],[-81.7851,41.27645],[-81.7849,41.20151],[-81.80697,41.20136],[-81.80737,41.21107],[-81.81318,41.21105],[-81.81311,41.21033],[-81.83113,41.21027],[-81.83134,41.2147],[-81.84154,41.21458],[-81.84152,41.21618],[-81.8434,41.21615],[-81.84341,41.21732],[-81.8456,41.21742],[-81.8464,41.22058],[-81.85738,41.22084],[-81.85743,41.2176],[-81.85974,41.21755],[-81.85974,41.21599],[-81.86041,41.21598],[-81.86043,41.21723],[-81.86212,41.21723],[-81.86212,41.21888],[-81.86913,41.21897],[-81.86931,41.23041],[-81.87177,41.23037],[-81.87228,41.22808],[-81.87832,41.22511],[-81.87815,41.26072],[-81.88184,41.26151],[-81.88182,41.2639],[-81.88423,41.26388],[-81.8842,41.27135],[-81.88607,41.2714]]]}},{"type":"Feature","id":"44221","properties":{"zip":"44221","ZCTA5":"44221","GEOID":"44221"},"geometry":{"type":"Polygon","coordinates":[[[-81.49701,41.12847],[-81.4965,41.12943],[-81.49712,41.12944],[-81.49708,41.13083],[-81.49645,41.13116],[-81.49725,41.13159],[-81.49667,41.13441],[-81.49726,41.13579],[-81.49646,41.14238],[-81.49658,41.14364],[-81.49737,41.14365],[-81.49683,41.14406],[-81.49702,41.14848],[-81.49649,41.14847],[-81.49699,41.15119],[-81.49574,41.1548],[-81.49617,41.15633],[-81.48956,41.16049],[-81.48958,41.16574],[-81.4877,41.16518],[-81.48686,41.16539],[-81.48696,41.16609],[-81.48515,41.1661],[-81.48414,41.16556],[-81.48374,41.16926],[-81.48123,41.17166],[-81.4796,41.17173],[-81.47902,41.16902],[-81.47657,41.16674],[-81.47725,41.16358],[-81.47242,41.1628],[-81.46927,41.16398],[-81.46835,41.15864],[-81.47045,41.15214],[-81.46899,41.15225],[-81.46898,41.14845],[-81.46558,41.14842],[-81.45964,41.14436],[-81.45873,41.14512],[-81.45876,41.14655],[-81.45593,41.14551],[-81.45574,41.14942],[-81.44993,41.14806],[-81.44992,41.13585],[-81.45264,41.13584],[-81.45314,41.11868],[-81.46577,41.11887],[-81.4659,41.11702],[-81.47456,41.11713],[-81.4887,41.11747],[-81.48899,41.11929],[-81.49461,41.11517],[-81.49343,41.11845],[-81.4974,41.12321],[-81.49604,41.12447],[-81.49603,41.12603],[-81.49692,41.12603],[-81.49695,41.12716],[-81.49754,41.12712],[-81.49701,41.12847]]]}},{"type":"Feature","id":"44224","properties":{"zip":"44224","ZCTA5":"44224","GEOID":"44224"},"geometry":{"type":"Polygon","coordinates":[[[-81.50859,41.1819],[-81.50826,41.18616],[-81.50472,41.18619],[-81.5047,41.18369],[-81.49927,41.18369],[-81.49923,41.18829],[-81.50392,41.18832],[-81.50397,41.1906],[-81.50019,41.19061],[-81.50013,41.1955],[-81.50269,41.19548],[-81.49596,41.20299],[-81.47572,41.20296],[-81.47742,41.20636],[-81.47952,41.2081],[-81.47952,41.21147],[-81.46226,41.21137],[-81.46222,41.21191],[-81.45773,41.20935],[-81.45864,41.20785],[-81.45583,41.20296],[-81.39193,41.20285],[-81.39214,41.18922],[-81.38363,41.18765],[-81.38351,41.18681],[-81.38616,41.18137],[-81.38423,41.17441],[-81.39224,41.17591],[-81.3924,41.15584],[-81.39571,41.15564],[-81.39645,41.15413],[-81.39523,41.14876],[-81.39681,41.14563],[-81.39245,41.14561],[-81.39211,41.13572],[-81.4185,41.1358],[-81.41854,41.14478],[-81.42145,41.14478],[-81.42146,41.15221],[-81.44993,41.15214],[-81.44993,41.14806],[-81.45574,41.14942],[-81.45593,41.14551],[-81.45722,41.14561],[-81.45821,41.14671],[-81.45912,41.14583],[-81.45901,41.14459],[-81.4599,41.14444],[-81.46558,41.14842],[-81.46898,41.14845],[-81.46899,41.15225],[-81.47045,41.15214],[-81.46835,41.15864],[-81.46927,41.16398],[-81.47242,41.1628],[-81.47725,41.16358],[-81.47657,41.16674],[-81.47902,41.16902],[-81.4796,41.17173],[-81.48123,41.17166],[-81.48374,41.16926],[-81.48414,41.16556],[-81.48515,41.1661],[-81.48696,41.16609],[-81.48686,41.16539],[-81.4877,41.16518],[-81.48958,41.16574],[-81.48956,41.16049],[-81.49279,41.15875],[-81.49287,41.16062],[-81.49393,41.16061],[-81.49391,41.16399],[-81.49906,41.16361],[-81.49913,41.16473],[-81.49325,41.16681],[-81.49433,41.17399],[-81.49432,41.18104],[-81.50857,41.18097],[-81.50859,41.1819]]]}},{"type":"Feature","id":"44236","properties":{"zip":"44236","ZCTA5":"44236","GEOID":"44236"},"geometry":{"type":"Polygon","coordinates":[[[-81.5438,41.27001],[-81.52651,41.27052],[-81.52635,41.27768],[-81.50455,41.27737],[-81.50735,41.27773],[-81.50957,41.28214],[-81.50626,41.28304],[-81.50383,41.27736],[-81.46483,41.27697],[-81.46482,41.28086],[-81.44899,41.28289],[-81.43791,41.28286],[-81.43862,41.28469],[-81.42567,41.28463],[-81.42498,41.29788],[-81.41937,41.29774],[-81.417,41.29637],[-81.41644,41.29309],[-81.41787,41.29355],[-81.4182,41.29447],[-81.41994,41.29312],[-81.41879,41.29312],[-81.41813,41.29135],[-81.41622,41.29052],[-81.41603,41.2896],[-81.41714,41.28921],[-81.41679,41.28837],[-81.41371,41.28991],[-81.41365,41.28795],[-81.41254,41.28665],[-81.4059,41.28516],[-81.40303,41.28546],[-81.40303,41.28636],[-81.39943,41.28816],[-81.39823,41.28695],[-81.39513,41.28776],[-81.39473,41.28626],[-81.39364,41.28606],[-81.39414,41.28517],[-81.39176,41.28405],[-81.39183,41.27665],[-81.39072,41.27661],[-81.39034,41.27169],[-81.38827,41.27146],[-81.38772,41.26976],[-81.38786,41.26658],[-81.39203,41.26902],[-81.39193,41.26525],[-81.38299,41.26379],[-81.37801,41.2617],[-81.38674,41.26411],[-81.38974,41.26341],[-81.38669,41.25481],[-81.39195,41.25439],[-81.39193,41.20285],[-81.45583,41.20296],[-81.45864,41.20785],[-81.45773,41.20935],[-81.46222,41.21191],[-81.46226,41.21137],[-81.47952,41.21147],[-81.47952,41.2081],[-81.47742,41.20636],[-81.47572,41.20296],[-81.48326,41.20295],[-81.48816,41.21396],[-81.48934,41.22003],[-81.49095,41.22004],[-81.49075,41.22305],[-81.49739,41.22646],[-81.51939,41.22662],[-81.51931,41.23302],[-81.50864,41.23115],[-81.50205,41.2311],[-81.49057,41.23239],[-81.49424,41.23746],[-81.50007,41.25456],[-81.50796,41.25487],[-81.50987,41.25807],[-81.53337,41.25701],[-81.5333,41.26226],[-81.53661,41.26381],[-81.54122,41.2688],[-81.5438,41.27001]]]}},{"type":"Feature","id":"44256","properties":{"zip":"44256","ZCTA5":"44256","GEOID":"44256"},"geometry":{"type":"Polygon","coordinates":[[[-82.02437,41.09233],[-82.02431,41.09994],[-82.0219,41.10065],[-82.02087,41.10242],[-82.01861,41.10396],[-82.01776,41.10654],[-82.01436,41.10981],[-82.0137,41.11239],[-82.00296,41.11225],[-82.0029,41.11322],[-82.00448,41.11338],[-82.00428,41.11695],[-82.00664,41.11707],[-82.00651,41.12084],[-82.00909,41.12085],[-82.00912,41.12298],[-82.01087,41.12299],[-82.01087,41.12505],[-82.00954,41.12512],[-82.00945,41.13015],[-82.00426,41.13012],[-82.00392,41.14333],[-81.9878,41.14327],[-81.98764,41.15063],[-81.99006,41.15282],[-81.98951,41.15433],[-81.99418,41.15688],[-81.99417,41.1579],[-81.9934,41.1579],[-81.99336,41.15924],[-81.98841,41.15914],[-81.98835,41.1606],[-81.98671,41.16118],[-81.98657,41.16291],[-81.98556,41.16289],[-81.98558,41.1614],[-81.98447,41.16139],[-81.98447,41.16051],[-81.9787,41.16028],[-81.97851,41.16475],[-81.97474,41.16535],[-81.97466,41.1689],[-81.9727,41.16888],[-81.97289,41.1769],[-81.97005,41.17687],[-81.97014,41.18233],[-81.96911,41.18233],[-81.96825,41.18919],[-81.96641,41.18917],[-81.96636,41.19201],[-81.97666,41.19286],[-81.97666,41.19204],[-81.97994,41.19197],[-81.97985,41.19007],[-81.98644,41.18998],[-81.98636,41.19092],[-81.99105,41.19098],[-81.99105,41.19986],[-81.97414,41.19983],[-81.98388,41.20729],[-81.98355,41.22233],[-81.974,41.22228],[-81.97423,41.20892],[-81.97145,41.20925],[-81.97128,41.2113],[-81.96448,41.21253],[-81.96355,41.21403],[-81.96359,41.2098],[-81.95467,41.2087],[-81.95467,41.208],[-81.95329,41.20799],[-81.95276,41.20598],[-81.95076,41.20587],[-81.95078,41.20445],[-81.94069,41.20477],[-81.93918,41.20683],[-81.93578,41.20682],[-81.93577,41.20783],[-81.93435,41.20892],[-81.92603,41.20919],[-81.92607,41.20777],[-81.9251,41.20776],[-81.92509,41.20671],[-81.92298,41.20684],[-81.92264,41.20514],[-81.91965,41.2051],[-81.92035,41.20293],[-81.92294,41.20153],[-81.92381,41.19968],[-81.88745,41.20016],[-81.8866,41.1971],[-81.88398,41.19836],[-81.88132,41.1984],[-81.87827,41.19685],[-81.87828,41.20029],[-81.86639,41.20053],[-81.86638,41.20134],[-81.86902,41.20134],[-81.8691,41.21049],[-81.86593,41.21056],[-81.86591,41.21326],[-81.86988,41.21359],[-81.86988,41.21562],[-81.85974,41.21599],[-81.85974,41.21755],[-81.85743,41.2176],[-81.85738,41.22084],[-81.8464,41.22058],[-81.8456,41.21742],[-81.84341,41.21732],[-81.8434,41.21615],[-81.84152,41.21618],[-81.84154,41.21458],[-81.83134,41.2147],[-81.83113,41.21027],[-81.81311,41.21033],[-81.81318,41.21105],[-81.80737,41.21107],[-81.80697,41.20136],[-81.68565,41.20213],[-81.68606,41.18732],[-81.68825,41.1873],[-81.68845,41.18358],[-81.68932,41.18172],[-81.68936,41.17021],[-81.68758,41.17005],[-81.68812,41.16443],[-81.6948,41.1645],[-81.69487,41.16212],[-81.69598,41.16222],[-81.696,41.16055],[-81.69988,41.16066],[-81.6999,41.15841],[-81.69067,41.15892],[-81.69078,41.15656],[-81.68758,41.15665],[-81.68657,41.15568],[-81.68699,41.13596],[-81.73503,41.13614],[-81.73506,41.13382],[-81.74043,41.13384],[-81.74045,41.13293],[-81.74361,41.13294],[-81.74374,41.12672],[-81.74627,41.12672],[-81.74627,41.12342],[-81.75065,41.1234],[-81.7507,41.12253],[-81.75324,41.12249],[-81.7537,41.11915],[-81.75515,41.11916],[-81.75517,41.11787],[-81.76464,41.11788],[-81.76235,41.11626],[-81.76168,41.11425],[-81.76041,41.11327],[-81.77085,41.11332],[-81.77102,41.10442],[-81.76821,41.10512],[-81.76763,41.10681],[-81.76898,41.10765],[-81.76707,41.10836],[-81.76609,41.10836],[-81.76609,41.10743],[-81.75877,41.1073],[-81.7562,41.10354],[-81.75635,41.09285],[-81.74751,41.09061],[-81.74751,41.08702],[-81.75137,41.08665],[-81.75144,41.08455],[-81.7552,41.0846],[-81.75522,41.08209],[-81.75651,41.08213],[-81.75652,41.0811],[-81.7761,41.08116],[-81.77609,41.08228],[-81.77767,41.08227],[-81.77766,41.08337],[-81.78178,41.08347],[-81.78181,41.08448],[-81.78322,41.08448],[-81.78326,41.08256],[-81.78515,41.08258],[-81.78516,41.08123],[-81.79542,41.08293],[-81.79539,41.08031],[-81.79754,41.07997],[-81.79821,41.07887],[-81.79546,41.06799],[-81.79548,41.06491],[-81.79705,41.05987],[-81.7947,41.05712],[-81.79995,41.05714],[-81.80029,41.05627],[-81.80349,41.05593],[-81.80351,41.05344],[-81.80495,41.05344],[-81.80494,41.05715],[-81.81428,41.06046],[-81.81549,41.06365],[-81.81924,41.06428],[-81.81923,41.06593],[-81.82652,41.06674],[-81.82655,41.06919],[-81.82833,41.0692],[-81.8283,41.07687],[-81.83117,41.07677],[-81.83116,41.07808],[-81.83966,41.07811],[-81.83711,41.08128],[-81.83821,41.08183],[-81.83823,41.08449],[-81.8553,41.08461],[-81.85537,41.08289],[-81.86019,41.08284],[-81.86112,41.07814],[-81.86426,41.07816],[-81.86427,41.07461],[-81.87206,41.07544],[-81.87651,41.0708],[-81.87936,41.07086],[-81.87954,41.06254],[-81.88386,41.06243],[-81.88492,41.07731],[-81.88906,41.07736],[-81.88905,41.07906],[-81.89053,41.07905],[-81.89057,41.08598],[-81.89256,41.08527],[-81.892,41.08454],[-81.89324,41.08307],[-81.89324,41.08055],[-81.8973,41.0786],[-81.90135,41.08592],[-81.91532,41.08568],[-81.91402,41.08098],[-81.91778,41.08102],[-81.91784,41.07849],[-81.92356,41.07846],[-81.92338,41.07561],[-81.92025,41.07571],[-81.91796,41.07679],[-81.91249,41.07681],[-81.91128,41.07352],[-81.909,41.0733],[-81.90743,41.07183],[-81.90618,41.07209],[-81.9038,41.06577],[-81.90403,41.06065],[-81.9051,41.05837],[-81.90352,41.05567],[-81.90108,41.05424],[-81.8997,41.05118],[-81.9131,41.05151],[-81.91329,41.04684],[-81.91702,41.04688],[-81.91699,41.04795],[-81.92385,41.04838],[-81.93595,41.04763],[-81.93582,41.05011],[-81.93773,41.05013],[-81.93766,41.05178],[-81.93954,41.0518],[-81.93952,41.05261],[-81.94474,41.05269],[-81.94449,41.06262],[-81.94983,41.06262],[-81.9497,41.07502],[-81.95921,41.07504],[-81.95921,41.07725],[-81.96421,41.07728],[-81.96421,41.08093],[-81.97245,41.08191],[-81.97297,41.08306],[-81.97244,41.08781],[-81.97588,41.08784],[-81.97598,41.08021],[-81.97911,41.08031],[-81.97898,41.0834],[-82.00441,41.08372],[-82.00431,41.08597],[-82.01234,41.08608],[-82.01214,41.08899],[-82.01516,41.08855],[-82.01703,41.08682],[-82.01639,41.08362],[-82.0179,41.08059],[-82.02255,41.07776],[-82.02364,41.08229],[-82.02303,41.08474],[-82.02357,41.08796],[-82.02241,41.09087],[-82.0244,41.09089],[-82.02437,41.09233]],[[-81.7456,41.14036],[-81.7412,41.14035],[-81.73993,41.13868],[-81.73513,41.13829],[-81.73502,41.13688],[-81.7336,41.13681],[-81.73348,41.13777],[-81.73251,41.13813],[-81.7324,41.14019],[-81.72998,41.14018],[-81.72984,41.14504],[-81.72804,41.14502],[-81.72812,41.14927],[-81.73316,41.1493],[-81.73323,41.15419],[-81.73464,41.1543],[-81.73471,41.15563],[-81.73583,41.15561],[-81.73584,41.15443],[-81.73741,41.15444],[-81.73743,41.15355],[-81.73851,41.15336],[-81.73857,41.1511],[-81.74558,41.15113],[-81.7456,41.14036]]]}},{"type":"Feature","id":"44308","properties":{"zip":"44308","ZCTA5":"44308","GEOID":"44308"},"geometry":{"type":"Polygon","coordinates":[[[-81.52656,41.07876],[-81.52526,41.08064],[-81.52388,41.0801],[-81.52342,41.08072],[-81.52476,41.08144],[-81.52032,41.08386],[-81.51784,41.09028],[-81.51389,41.08883],[-81.51469,41.08702],[-81.511,41.08604],[-81.51203,41.08466],[-81.51328,41.08452],[-81.50878,41.0833],[-81.51002,41.08252],[-81.5079,41.08163],[-81.50929,41.0797],[-81.50927,41.07778],[-81.51116,41.07811],[-81.51114,41.08051],[-81.51283,41.08122],[-81.51524,41.07988],[-81.51875,41.07522],[-81.51968,41.07557],[-81.52045,41.07452],[-81.52285,41.07549],[-81.52212,41.07654],[-81.52356,41.07712],[-81.52469,41.07622],[-81.52615,41.07681],[-81.52543,41.07785],[-81.52656,41.07876]]]}},{"type":"Feature","id":"44313","properties":{"zip":"44313","ZCTA5":"44313","GEOID":"44313"},"geometry":{"type":"MultiPolygon","coordinates":[[[[-81.54705,41.09756],[-81.54664,41.09802],[-81.54538,41.09737],[-81.54494,41.09568],[-81.54666,41.09601],[-81.54705,41.09756]]],[[[-81.61105,41.11388],[-81.60979,41.11394],[-81.60883,41.1204],[-81.60415,41.12181],[-81.6042,41.12414],[-81.6052,41.12476],[-81.60456,41.12558],[-81.59884,41.12284],[-81.5987,41.12205],[-81.59831,41.12257],[-81.59098,41.11908],[-81.59085,41.12402],[-81.58925,41.12434],[-81.58915,41.12777],[-81.58752,41.12795],[-81.58743,41.13334],[-81.58677,41.13459],[-81.58737,41.14354],[-81.58885,41.14407],[-81.58893,41.14682],[-81.58811,41.14685],[-81.5881,41.14847],[-81.58732,41.14847],[-81.58721,41.16088],[-81.57614,41.16204],[-81.57784,41.17004],[-81.58117,41.17665],[-81.57944,41.17665],[-81.58104,41.18035],[-81.58294,41.18106],[-81.58344,41.18216],[-81.58154,41.18306],[-81.57904,41.18286],[-81.57754,41.18426],[-81.57744,41.18585],[-81.57544,41.18655],[-81.57525,41.18881],[-81.57684,41.18966],[-81.57274,41.19056],[-81.57234,41.19235],[-81.57104,41.19326],[-81.56894,41.19275],[-81.56724,41.19396],[-81.56754,41.1994],[-81.56911,41.19941],[-81.56833,41.20082],[-81.56634,41.201],[-81.56725,41.19869],[-81.56639,41.19584],[-81.56682,41.19398],[-81.57303,41.18878],[-81.56691,41.1887],[-81.56669,41.17343],[-81.57175,41.17316],[-81.56498,41.15959],[-81.56424,41.15836],[-81.56304,41.15816],[-81.55694,41.15966],[-81.55504,41.15875],[-81.54721,41.15876],[-81.54718,41.16166],[-81.53892,41.16162],[-81.53896,41.16028],[-81.53797,41.16],[-81.5428,41.15874],[-81.54295,41.15602],[-81.54519,41.15666],[-81.54584,41.15469],[-81.54411,41.15435],[-81.5486,41.15116],[-81.551,41.14701],[-81.54801,41.14694],[-81.54624,41.14576],[-81.54474,41.14616],[-81.54434,41.14576],[-81.54544,41.14525],[-81.54604,41.14335],[-81.54324,41.14176],[-81.54139,41.14308],[-81.54135,41.14416],[-81.54233,41.14409],[-81.54226,41.14797],[-81.53746,41.14785],[-81.53707,41.15129],[-81.53561,41.15132],[-81.5357,41.14719],[-81.53449,41.14849],[-81.53442,41.15133],[-81.53319,41.15005],[-81.53182,41.14995],[-81.53162,41.14447],[-81.53432,41.14445],[-81.53605,41.14321],[-81.53615,41.13965],[-81.5373,41.13976],[-81.5373,41.13899],[-81.53203,41.13934],[-81.53208,41.14307],[-81.52867,41.14308],[-81.52855,41.14189],[-81.52759,41.14161],[-81.52935,41.14178],[-81.52935,41.14104],[-81.52868,41.14095],[-81.52866,41.13956],[-81.5276,41.13963],[-81.52761,41.13719],[-81.52273,41.13717],[-81.52223,41.13847],[-81.52143,41.13847],[-81.52101,41.13595],[-81.51977,41.13596],[-81.51966,41.12434],[-81.5191,41.12347],[-81.52024,41.12006],[-81.52224,41.11886],[-81.52264,41.11686],[-81.52404,41.11805],[-81.52634,41.11726],[-81.52664,41.11906],[-81.53294,41.12056],[-81.53394,41.12235],[-81.53294,41.12405],[-81.53114,41.12456],[-81.53134,41.12535],[-81.53714,41.12725],[-81.53904,41.13305],[-81.54164,41.13535],[-81.54274,41.13555],[-81.54743,41.1333],[-81.54766,41.136],[-81.54848,41.133],[-81.5442,41.13245],[-81.54088,41.13071],[-81.53551,41.12132],[-81.52986,41.1171],[-81.53461,41.11676],[-81.53463,41.11561],[-81.53598,41.11774],[-81.53913,41.11763],[-81.54283,41.12189],[-81.54855,41.12289],[-81.54852,41.11637],[-81.5516,41.11593],[-81.55072,41.11479],[-81.55161,41.1148],[-81.55223,41.1132],[-81.55333,41.11309],[-81.55335,41.11111],[-81.5497,41.11022],[-81.54926,41.10739],[-81.54805,41.10746],[-81.54723,41.10382],[-81.54891,41.10382],[-81.5492,41.10292],[-81.54766,41.09951],[-81.54823,41.09889],[-81.55621,41.09965],[-81.55133,41.09609],[-81.55565,41.09602],[-81.55574,41.09658],[-81.55371,41.09709],[-81.55664,41.09729],[-81.55727,41.09645],[-81.55715,41.09244],[-81.55822,41.09243],[-81.55921,41.09462],[-81.56038,41.09455],[-81.56075,41.09579],[-81.56125,41.09502],[-81.56461,41.09528],[-81.56455,41.09929],[-81.56892,41.09963],[-81.56936,41.09613],[-81.571,41.09628],[-81.57098,41.09364],[-81.57344,41.09291],[-81.58026,41.09282],[-81.58095,41.09197],[-81.5846,41.09216],[-81.58748,41.09925],[-81.58695,41.09992],[-81.58506,41.09988],[-81.58459,41.10151],[-81.58154,41.10148],[-81.58133,41.10988],[-81.58077,41.11014],[-81.58034,41.10851],[-81.5785,41.10857],[-81.57834,41.11164],[-81.57663,41.11276],[-81.59663,41.10552],[-81.60405,41.10902],[-81.60403,41.11393],[-81.60668,41.11393],[-81.60482,41.11385],[-81.60487,41.10942],[-81.61105,41.11388]]]]}}]}
