{"type":"FeatureCollection","features":[{"type":"Feature","id":"44022","properties":{"zip":"44022"},"geometry":{"type":"Polygon","coordinates":[[[-81.32289145907474,41.54032918149466],[-81.22908886894076,41.42151256732496],[-81.39237684729063,41.36471674876847],[-81.46558873720136,41.39799488054607],[-81.44616666666667,41.453833333333336],[-81.3625,41.5375],[-81.32289145907474,41.54032918149466]]]}},{"type":"Feature","id":"44060","properties":{"zip":"44060"},"geometry":{"type":"Polygon","coordinates":[[[-81.39921532846715,41.70341240875913],[-81.40349946835617,41.73482943461196],[-81.32061060927126,41.75762387086031],[-81.26623287671234,41.63527397260274],[-81.31514462809918,41.56679752066116],[-81.39921532846715,41.70341240875913]]]}},{"type":"Feature","id":"44070","properties":{"zip":"44070"},"geometry":{"type":"Polygon","coordinates":[[[-81.85480769230769,41.4375],[-81.94469424460432,41.3206474820144],[-81.9745,41.42],[-81.96925,41.4375],[-81.85480769230769,41.4375]]]}},{"type":"Feature","id":"44102","properties":{"zip":"44102"},"geometry":{"type":"Polygon","coordinates":[[[-81.73299295774648,41.43679577464789],[-81.74634615384615,41.433653846153845],[-81.79938145282398,41.55298326885399],[-81.7469513129027,41.55640262580538],[-81.7275,41.5175],[-81.71885593220338,41.45699152542373],[-81.73299295774648,41.43679577464789]]]}},{"type":"Feature","id":"44106","properties":{"zip":"44106"},"geometry":{"type":"Polygon","coordinates":[[[-81.55875,41.589999999999996],[-81.59227272727273,41.455909090909095],[-81.5940625,41.45437499999999],[-81.61578767123288,41.44568493150685],[-81.6276724137931,41.484310344827584],[-81.59041666666666,41.63333333333332],[-81.55875,41.589999999999996]]]}},{"type":"Feature","id":"44109","properties":{"zip":"44109"},"geometry":{"type":"Polygon","coordinates":[[[-81.6224628252788,41.43692379182157],[-81.63083333333334,41.40583333333333],[-81.70336956521739,41.419021739130436],[-81.73299295774648,41.43679577464789],[-81.71885593220338,41.45699152542373],[-81.68287313432836,41.470485074626865],[-81.6224628252788,41.43692379182157]]]}},{"type":"Feature","id":"44111","properties":{"zip":"44111"},"geometry":{"type":"Polygon","coordinates":[[[-81.81097133757963,41.407977707006374],[-81.85184322033898,41.43976694915254],[-81.85305555555556,41.472500000000004],[-81.8356966925208,41.55061488365638],[-81.79938145282398,41.55298326885399],[-81.74634615384615,41.433653846153845],[-81.75431818181818,41.42568181818182],[-81.81097133757963,41.407977707006374]]]}},{"type":"Feature","id":"44113","properties":{"zip":"44113"},"geometry":{"type":"Polygon","coordinates":[[[-81.71885593220338,41.45699152542373],[-81.7275,41.5175],[-81.68474137931035,41.485431034482765],[-81.68287313432836,41.470485074626865],[-81.71885593220338,41.45699152542373]]]}},{"type":"Feature","id":"44114","properties":{"zip":"44114"},"geometry":{"type":"Polygon","coordinates":[[[-81.66616666666667,41.51638888888889],[-81.68474137931035,41.485431034482765],[-81.7275,41.5175],[-81.7469513129027,41.55640262580538],[-81.7082641030079,41.55892570471156],[-81.68381711001254,41.5752237000418],[-81.66616666666667,41.51638888888889]]]}},{"type":"Feature","id":"44115","properties":{"zip":"44115"},"geometry":{"type":"Polygon","coordinates":[[[-81.68474137931035,41.485431034482765],[-81.66616666666667,41.51638888888889],[-81.6276724137931,41.484310344827584],[-81.61578767123288,41.44568493150685],[-81.6224628252788,41.43692379182157],[-81.68287313432836,41.470485074626865],[-81.68474137931035,41.485431034482765]]]}},{"type":"Feature","id":"44118","properties":{"zip":"44118"},"geometry":{"type":"Polygon","coordinates":[[[-81.51611538461539,41.51503846153846],[-81.53861111111111,41.4737962962963],[-81.59227272727273,41.455909090909095],[-81.55875,41.589999999999996],[-81.52083333333333,41.5575],[-81.51611538461539,41.51503846153846]]]}},{"type":"Feature","id":"44122","properties":{"zip":"44122"},"geometry":{"type":"Polygon","coordinates":[[[-81.44616666666667,41.453833333333336],[-81.46558873720136,41.39799488054607],[-81.47145833333335,41.39545138888888],[-81.53861111111111,41.4737962962963],[-81.51611538461539,41.51503846153846],[-81.44616666666667,41.453833333333336]]]}},{"type":"Feature","id":"44124","properties":{"zip":"44124"},"geometry":{"type":"Polygon","coordinates":[[[-81.3625,41.5375],[-81.44616666666667,41.453833333333336],[-81.51611538461539,41.51503846153846],[-81.52083333333333,41.5575],[-81.40249999999999,41.5575],[-81.3625,41.5375]]]}},{"type":"Feature","id":"44128","properties":{"zip":"44128"},"geometry":{"type":"Polygon","coordinates":[[[-81.53861111111111,41.4737962962963],[-81.47145833333335,41.39545138888888],[-81.48666666666666,41.38277777777778],[-81.5940625,41.45437499999999],[-81.59227272727273,41.455909090909095],[-81.53861111111111,41.4737962962963]]]}},{"type":"Feature","id":"44129","properties":{"zip":"44129"},"geometry":{"type":"Polygon","coordinates":[[[-81.72275,41.34150000000001],[-81.75431818181818,41.42568181818182],[-81.74634615384615,41.433653846153845],[-81.73299295774648,41.43679577464789],[-81.70336956521739,41.419021739130436],[-81.72275,41.34150000000001]]]}},{"type":"Feature","id":"44130","properties":{"zip":"44130"},"geometry":{"type":"Polygon","coordinates":[[[-81.70892123287672,41.25852739726028],[-81.80098232848233,41.313082120582116],[-81.81097133757963,41.407977707006374],[-81.75431818181818,41.42568181818182],[-81.72275,41.34150000000001],[-81.70892123287672,41.25852739726028]]]}},{"type":"Feature","id":"44140","properties":{"zip":"44140"},"geometry":{"type":"Polygon","coordinates":[[[-81.85305555555556,41.472500000000004],[-81.971,41.4725],[-81.973,41.4775],[-81.96184127508883,41.55189149940776],[-81.91768389405169,41.54526789225219],[-81.8356966925208,41.55061488365638],[-81.85305555555556,41.472500000000004]]]}},{"type":"Feature","id":"44145","properties":{"zip":"44145"},"geometry":{"type":"Polygon","coordinates":[[[-81.85305555555556,41.472500000000004],[-81.85184322033898,41.43976694915254],[-81.85480769230769,41.4375],[-81.96925,41.4375],[-81.971,41.4725],[-81.85305555555556,41.472500000000004]]]}},{"type":"Feature","id":"44202","properties":{"zip":"44202"},"geometry":{"type":"Polygon","coordinates":[[[-81.3576329787234,41.23265957446808],[-81.39708333333333,41.28],[-81.39237684729063,41.36471674876847],[-81.22908886894076,41.42151256732496],[-81.19913629634895,41.40455828095224],[-81.29623234824491,41.29300111494412],[-81.3001007326853,41.22917277167789],[-81.3576329787234,41.23265957446808]]]}},{"type":"Feature","id":"44212","properties":{"zip":"44212"},"geometry":{"type":"Polygon","coordinates":[[[-81.70892123287672,41.25852739726028],[-81.68470588235294,41.23514705882353],[-81.71391109298531,41.16657830342578],[-82.00665711009175,41.22233944954128],[-81.94774600246002,41.2954704797048],[-81.80098232848233,41.313082120582116],[-81.70892123287672,41.25852739726028]]]}},{"type":"Feature","id":"44221","properties":{"zip":"44221"},"geometry":{"type":"Polygon","coordinates":[[[-81.41772727272728,41.117727272727265],[-81.41685483870968,41.10725806451613],[-81.46625,41.0875],[-81.524,41.126],[-81.53441860465117,41.21976744186047],[-81.50999999999999,41.21],[-81.41772727272728,41.117727272727265]]]}},{"type":"Feature","id":"44224","properties":{"zip":"44224"},"geometry":{"type":"Polygon","coordinates":[[[-81.38312499999999,41.21],[-81.41772727272728,41.117727272727265],[-81.50999999999999,41.21],[-81.38312499999999,41.21]]]}},{"type":"Feature","id":"44236","properties":{"zip":"44236"},"geometry":{"type":"Polygon","coordinates":[[[-81.53441860465117,41.21976744186047],[-81.57729461756374,41.27043909348442],[-81.56375,41.28],[-81.39708333333333,41.28],[-81.3576329787234,41.23265957446808],[-81.38312499999999,41.21],[-81.50999999999999,41.21],[-81.53441860465117,41.21976744186047]]]}},{"type":"Feature","id":"44256","properties":{"zip":"44256"},"geometry":{"type":"Polygon","coordinates":[[[-82.00665711009175,41.22233944954128],[-81.71391109298531,41.16657830342578],[-81.71848729792147,41.03386836027714],[-81.73022536058735,41.01112586386198],[-81.88522536058737,41.09112586386198],[-81.88962980667606,41.093663464131],[-81.89378116464852,41.09659685593197],[-81.8976439749629,41.099900983191695],[-82.01938824550027,41.21419152287983],[-82.00665711009175,41.22233944954128]]]}},{"type":"Feature","id":"44308","properties":{"zip":"44308"},"geometry":{"type":"Polygon","coordinates":[[[-81.524,41.126],[-81.46625,41.0875],[-81.50021739130435,41.0195652173913],[-81.60038461538461,41.049615384615386],[-81.524,41.126]]]}},{"type":"Feature","id":"44313","properties":{"zip":"44313"},"geometry":{"type":"Polygon","coordinates":[[[-81.71848729792147,41.03386836027714],[-81.71391109298531,41.16657830342578],[-81.68470588235294,41.23514705882353],[-81.61166666666668,41.27166666666667],[-81.57729461756374,41.27043909348442],[-81.53441860465117,41.21976744186047],[-81.524,41.126],[-81.60038461538461,41.049615384615386],[-81.71848729792147,41.03386836027714]]]}}]}